start=new Date('2022-08-07T00:00:00.000Z').valueOf();
sats=[{"SITE":"AFWTR","EPHEMERIS_TYPE":"0","ARG_OF_PERICENTER":"50.4258","EPOCH":"2022-08-06T20:02:37.849920","PERIAPSIS":"538.581","ECCENTRICITY":"0.00017080","PERIOD":"95.438","LAUNCH_DATE":"2022-05-13","ELEMENT_SET_NO":"999","FILE":"3530813","OBJECT_ID":"2022-051AW","REV_AT_EPOCH":"1348","MEAN_ELEMENT_THEORY":"SGP4","REF_FRAME":"TEME","NORAD_CAT_ID":"52580","RCS_SIZE":"LARGE","MEAN_MOTION_DDOT":"0.0000000000000","BSTAR":"0.00006148800000","CENTER_NAME":"EARTH","MEAN_MOTION_DOT":"0.00000691","DECAY_DATE":null,"TLE_LINE1":"1 52580U 22051AW  22218.83516030  .00000691  00000-0  61488-4 0  9998","GP_ID":"209728609","APOAPSIS":"540.944","INCLINATION":"53.2195","MEAN_ANOMALY":"309.6884","CLASSIFICATION_TYPE":"U","SEMIMAJOR_AXIS":"6917.898","OBJECT_NAME":"STARLINK-3919","OBJECT_TYPE":"PAYLOAD","RA_OF_ASC_NODE":"258.7723","TIME_SYSTEM":"UTC","MEAN_MOTION":"15.08834387","COUNTRY_CODE":"US","TLE_LINE2":"2 52580  53.2195 258.7723 0001708  50.4258 309.6884 15.08834387 13482"},{"CLASSIFICATION_TYPE":"U","SEMIMAJOR_AXIS":"6917.990","MEAN_ANOMALY":"316.0817","APOAPSIS":"541.037","INCLINATION":"53.2156","GP_ID":"209729002","TLE_LINE1":"1 52581U 22051AX  22218.91667824  .00042448  00000-0  26718-2 0  9997","DECAY_DATE":null,"TLE_LINE2":"2 52581  53.2156 243.3917 0001708  49.5990 316.0817 15.08804129  1304","COUNTRY_CODE":"US","MEAN_MOTION":"15.08804129","OBJECT_TYPE":"PAYLOAD","TIME_SYSTEM":"UTC","RA_OF_ASC_NODE":"243.3917","OBJECT_NAME":"STARLINK-3915","ARG_OF_PERICENTER":"49.5990","EPOCH":"2022-08-06T22:00:00.999936","EPHEMERIS_TYPE":"0","SITE":"AFWTR","BSTAR":"0.00267180000000","CENTER_NAME":"EARTH","MEAN_MOTION_DOT":"0.00042448","RCS_SIZE":"LARGE","MEAN_MOTION_DDOT":"0.0000000000000","MEAN_ELEMENT_THEORY":"SGP4","REF_FRAME":"TEME","NORAD_CAT_ID":"52581","OBJECT_ID":"2022-051AX","REV_AT_EPOCH":"130","FILE":"3530813","ECCENTRICITY":"0.00017080","PERIAPSIS":"538.673","LAUNCH_DATE":"2022-05-13","PERIOD":"95.440","ELEMENT_SET_NO":"999"},{"NORAD_CAT_ID":"52582","MEAN_ELEMENT_THEORY":"SGP4","REF_FRAME":"TEME","RCS_SIZE":"LARGE","MEAN_MOTION_DDOT":"0.0000000000000","MEAN_MOTION_DOT":"0.00042525","CENTER_NAME":"EARTH","BSTAR":"0.00267530000000","PERIOD":"95.439","LAUNCH_DATE":"2022-05-13","ELEMENT_SET_NO":"999","ECCENTRICITY":"0.00018880","PERIAPSIS":"538.496","FILE":"3530813","REV_AT_EPOCH":"130","OBJECT_ID":"2022-051AY","EPOCH":"2022-08-06T22:00:00.999936","ARG_OF_PERICENTER":"48.8892","SITE":"AFWTR","EPHEMERIS_TYPE":"0","MEAN_MOTION":"15.08821543","COUNTRY_CODE":"US","TLE_LINE2":"2 52582  53.2151 243.3944 0001888  48.8892 276.8023 15.08821543  1303","OBJECT_NAME":"STARLINK-3886","OBJECT_TYPE":"PAYLOAD","TIME_SYSTEM":"UTC","RA_OF_ASC_NODE":"243.3944","MEAN_ANOMALY":"276.8023","SEMIMAJOR_AXIS":"6917.937","CLASSIFICATION_TYPE":"U","DECAY_DATE":null,"TLE_LINE1":"1 52582U 22051AY  22218.91667824  .00042525  00000-0  26753-2 0  9993","GP_ID":"209728740","INCLINATION":"53.2151","APOAPSIS":"541.108"},{"TLE_LINE2":"2 52583  53.2163 243.3923 0002011  54.5834 331.0628 15.08811867  1306","COUNTRY_CODE":"US","MEAN_MOTION":"15.08811867","TIME_SYSTEM":"UTC","OBJECT_TYPE":"PAYLOAD","RA_OF_ASC_NODE":"243.3923","OBJECT_NAME":"STARLINK-3895","SEMIMAJOR_AXIS":"6917.966","CLASSIFICATION_TYPE":"U","MEAN_ANOMALY":"331.0628","INCLINATION":"53.2163","APOAPSIS":"541.223","GP_ID":"209728479","DECAY_DATE":null,"TLE_LINE1":"1 52583U 22051AZ  22218.91667824  .00041523  00000-0  26137-2 0  9997","MEAN_MOTION_DOT":"0.00041523","BSTAR":"0.00261370000000","CENTER_NAME":"EARTH","RCS_SIZE":"LARGE","MEAN_MOTION_DDOT":"0.0000000000000","NORAD_CAT_ID":"52583","MEAN_ELEMENT_THEORY":"SGP4","REF_FRAME":"TEME","REV_AT_EPOCH":"130","OBJECT_ID":"2022-051AZ","FILE":"3530813","PERIOD":"95.439","LAUNCH_DATE":"2022-05-13","ELEMENT_SET_NO":"999","PERIAPSIS":"538.440","ECCENTRICITY":"0.00020110","EPOCH":"2022-08-06T22:00:00.999936","ARG_OF_PERICENTER":"54.5834","EPHEMERIS_TYPE":"0","SITE":"AFWTR"},{"COUNTRY_CODE":"US","MEAN_MOTION":"15.08807568","TLE_LINE2":"2 52584  53.2160 243.3924 0001680  49.4304 296.2066 15.08807568  1302","OBJECT_TYPE":"PAYLOAD","RA_OF_ASC_NODE":"243.3924","TIME_SYSTEM":"UTC","OBJECT_NAME":"STARLINK-3922","MEAN_ANOMALY":"296.2066","SEMIMAJOR_AXIS":"6917.980","CLASSIFICATION_TYPE":"U","DECAY_DATE":null,"TLE_LINE1":"1 52584U 22051BA  22218.91667824  .00042486  00000-0  26739-2 0  9995","INCLINATION":"53.2160","APOAPSIS":"541.007","GP_ID":"209728219","NORAD_CAT_ID":"52584","MEAN_ELEMENT_THEORY":"SGP4","REF_FRAME":"TEME","MEAN_MOTION_DOT":"0.00042486","CENTER_NAME":"EARTH","BSTAR":"0.00267390000000","MEAN_MOTION_DDOT":"0.0000000000000","RCS_SIZE":"LARGE","FILE":"3530813","PERIOD":"95.440","LAUNCH_DATE":"2022-05-13","ELEMENT_SET_NO":"999","PERIAPSIS":"538.682","ECCENTRICITY":"0.00016800","REV_AT_EPOCH":"130","OBJECT_ID":"2022-051BA","EPOCH":"2022-08-06T22:00:00.999936","ARG_OF_PERICENTER":"49.4304","EPHEMERIS_TYPE":"0","SITE":"AFWTR"},{"PERIAPSIS":"538.606","ECCENTRICITY":"0.00017900","ELEMENT_SET_NO":"999","LAUNCH_DATE":"2022-05-13","PERIOD":"95.440","FILE":"3530813","OBJECT_ID":"2022-051BB","REV_AT_EPOCH":"130","REF_FRAME":"TEME","MEAN_ELEMENT_THEORY":"SGP4","NORAD_CAT_ID":"52585","RCS_SIZE":"LARGE","MEAN_MOTION_DDOT":"0.0000000000000","CENTER_NAME":"EARTH","BSTAR":"0.00253130000000","MEAN_MOTION_DOT":"0.00040192","SITE":"AFWTR","EPHEMERIS_TYPE":"0","ARG_OF_PERICENTER":"61.9541","EPOCH":"2022-08-06T22:00:00.999936","OBJECT_NAME":"STARLINK-3906","RA_OF_ASC_NODE":"243.3943","OBJECT_TYPE":"PAYLOAD","TIME_SYSTEM":"UTC","MEAN_MOTION":"15.08807749","COUNTRY_CODE":"US","TLE_LINE2":"2 52585  53.2179 243.3943 0001790  61.9541   3.6944 15.08807749  1304","TLE_LINE1":"1 52585U 22051BB  22218.91667824  .00040192  00000-0  25313-2 0  9995","DECAY_DATE":null,"GP_ID":"209729133","APOAPSIS":"541.082","INCLINATION":"53.2179","MEAN_ANOMALY":"3.6944","CLASSIFICATION_TYPE":"U","SEMIMAJOR_AXIS":"6917.979"},{"ARG_OF_PERICENTER":"56.2700","EPOCH":"2022-08-06T22:00:00.999936","SITE":"AFWTR","EPHEMERIS_TYPE":"0","MEAN_ELEMENT_THEORY":"SGP4","REF_FRAME":"TEME","NORAD_CAT_ID":"52586","MEAN_MOTION_DDOT":"0.0000000000000","RCS_SIZE":"LARGE","BSTAR":"0.00259100000000","CENTER_NAME":"EARTH","MEAN_MOTION_DOT":"0.00041154","PERIAPSIS":"538.544","ECCENTRICITY":"0.00018740","PERIOD":"95.440","LAUNCH_DATE":"2022-05-13","ELEMENT_SET_NO":"999","FILE":"3530813","OBJECT_ID":"2022-051BC","REV_AT_EPOCH":"130","MEAN_ANOMALY":"349.3760","CLASSIFICATION_TYPE":"U","SEMIMAJOR_AXIS":"6917.975","DECAY_DATE":null,"TLE_LINE1":"1 52586U 22051BC  22218.91667824  .00041154  00000-0  25910-2 0  9998","GP_ID":"209728349","APOAPSIS":"541.137","INCLINATION":"53.2164","MEAN_MOTION":"15.08808919","COUNTRY_CODE":"US","TLE_LINE2":"2 52586  53.2164 243.3938 0001874  56.2700 349.3760 15.08808919  1306","OBJECT_NAME":"STARLINK-3910","TIME_SYSTEM":"UTC","OBJECT_TYPE":"PAYLOAD","RA_OF_ASC_NODE":"243.3938"},{"MEAN_ELEMENT_THEORY":"SGP4","REF_FRAME":"TEME","NORAD_CAT_ID":"52587","BSTAR":"0.00248340000000","CENTER_NAME":"EARTH","MEAN_MOTION_DOT":"0.00039429","MEAN_MOTION_DDOT":"0.0000000000000","RCS_SIZE":"LARGE","FILE":"3530813","PERIAPSIS":"538.541","ECCENTRICITY":"0.00018530","ELEMENT_SET_NO":"999","LAUNCH_DATE":"2022-05-13","PERIOD":"95.439","OBJECT_ID":"2022-051BD","REV_AT_EPOCH":"130","ARG_OF_PERICENTER":"47.9749","EPOCH":"2022-08-06T22:00:00.999936","EPHEMERIS_TYPE":"0","SITE":"AFWTR","COUNTRY_CODE":"US","MEAN_MOTION":"15.08814563","TLE_LINE2":"2 52587  53.2188 243.3941 0001853  47.9749  37.6684 15.08814563  1308","OBJECT_TYPE":"PAYLOAD","RA_OF_ASC_NODE":"243.3941","TIME_SYSTEM":"UTC","OBJECT_NAME":"STARLINK-3867","MEAN_ANOMALY":"37.6684","CLASSIFICATION_TYPE":"U","SEMIMAJOR_AXIS":"6917.958","DECAY_DATE":null,"TLE_LINE1":"1 52587U 22051BD  22218.91667824  .00039429  00000-0  24834-2 0  9995","APOAPSIS":"541.105","INCLINATION":"53.2188","GP_ID":"209728872"},{"MEAN_MOTION":"15.08814851","COUNTRY_CODE":"US","TLE_LINE2":"2 52588  53.2193 243.3946 0002122  49.6177  56.0008 15.08814851  1309","OBJECT_NAME":"STARLINK-3917","OBJECT_TYPE":"PAYLOAD","TIME_SYSTEM":"UTC","RA_OF_ASC_NODE":"243.3946","MEAN_ANOMALY":"56.0008","SEMIMAJOR_AXIS":"6917.957","CLASSIFICATION_TYPE":"U","TLE_LINE1":"1 52588U 22051BE  22218.91667824  .00038390  00000-0  24187-2 0  9993","DECAY_DATE":null,"GP_ID":"209728610","INCLINATION":"53.2193","APOAPSIS":"541.290","NORAD_CAT_ID":"52588","MEAN_ELEMENT_THEORY":"SGP4","REF_FRAME":"TEME","RCS_SIZE":"LARGE","MEAN_MOTION_DDOT":"0.0000000000000","MEAN_MOTION_DOT":"0.00038390","CENTER_NAME":"EARTH","BSTAR":"0.00241870000000","LAUNCH_DATE":"2022-05-13","ELEMENT_SET_NO":"999","PERIOD":"95.439","ECCENTRICITY":"0.00021220","PERIAPSIS":"538.354","FILE":"3530813","REV_AT_EPOCH":"130","OBJECT_ID":"2022-051BE","EPOCH":"2022-08-06T22:00:00.999936","ARG_OF_PERICENTER":"49.6177","SITE":"AFWTR","EPHEMERIS_TYPE":"0"},{"MEAN_ANOMALY":"194.6238","CLASSIFICATION_TYPE":"U","SEMIMAJOR_AXIS":"6917.931","TLE_LINE1":"1 52598U 22052A   22218.91667824  .00036525  00000-0  23022-2 0  9990","DECAY_DATE":null,"APOAPSIS":"540.999","INCLINATION":"53.2157","GP_ID":"209728350","COUNTRY_CODE":"US","MEAN_MOTION":"15.08823603","TLE_LINE2":"2 52598  53.2157  48.4087 0001739  63.5546 194.6238 15.08823603  1307","TIME_SYSTEM":"UTC","OBJECT_TYPE":"PAYLOAD","RA_OF_ASC_NODE":"48.4087","OBJECT_NAME":"STARLINK-4019","ARG_OF_PERICENTER":"63.5546","EPOCH":"2022-08-06T22:00:00.999936","EPHEMERIS_TYPE":"0","SITE":"AFETR","REF_FRAME":"TEME","MEAN_ELEMENT_THEORY":"SGP4","NORAD_CAT_ID":"52598","CENTER_NAME":"EARTH","BSTAR":"0.00230220000000","MEAN_MOTION_DOT":"0.00036525","MEAN_MOTION_DDOT":"0.0000000000000","RCS_SIZE":"LARGE","FILE":"3530813","ECCENTRICITY":"0.00017390","PERIAPSIS":"538.592","PERIOD":"95.439","LAUNCH_DATE":"2022-05-14","ELEMENT_SET_NO":"999","OBJECT_ID":"2022-052A","REV_AT_EPOCH":"130"}];
